[{"OBJECT_NAME":"GRUS-1E","OBJECT_ID":"2021-022D","EPOCH":"2026-03-09T21:59:56.793984","MEAN_MOTION":14.99580708,"ECCENTRICITY":0.00128752,"INCLINATION":97.5572,"RA_OF_ASC_NODE":316.384,"ARG_OF_PERICENTER":314.1526,"MEAN_ANOMALY":45.8638,"EPHEMERIS_TYPE":0,"CLASSIFICATION_TYPE":"U","NORAD_CAT_ID":47935,"ELEMENT_SET_NO":999,"REV_AT_EPOCH":27107,"BSTAR":0.00017718433,"MEAN_MOTION_DOT":2.125e-5,"MEAN_MOTION_DDOT":0},{"OBJECT_NAME":"STARLINK-5645","OBJECT_ID":"2023-014AQ","EPOCH":"2026-03-09T10:49:04.836288","MEAN_MOTION":14.98330342,"ECCENTRICITY":0.00031006,"INCLINATION":69.999,"RA_OF_ASC_NODE":85.1733,"ARG_OF_PERICENTER":267.4686,"MEAN_ANOMALY":92.6118,"EPHEMERIS_TYPE":0,"CLASSIFICATION_TYPE":"U","NORAD_CAT_ID":55429,"ELEMENT_SET_NO":999,"REV_AT_EPOCH":17152,"BSTAR":4.6629793e-5,"MEAN_MOTION_DOT":4.63e-6,"MEAN_MOTION_DDOT":0}]
